NORAD_CAT_ID,OBJECT_NAME,OBJECT_TYPE,EPOCH,MEAN_MOTION,ECCENTRICITY,INCLINATION,RA_OF_ASC_NODE,ARG_OF_PERICENTER,MEAN_ANOMALY,BSTAR,MEAN_MOTION_DOT,MEAN_MOTION_DDOT,TLE_LINE0,TLE_LINE1,TLE_LINE2,SEMIMAJOR_AXIS,PERIOD,APOGEE,PERIGEE,DECAYED
52369.0,STARLINK-3841,PAYLOAD,2024-03-18 11:45:38,15.08839403,0.0001356,53.2166,186.7089,100.025,260.0895,9.1573e-05,1.17e-05,0.0,0 STARLINK-3841,1 52369U 22045AQ  24078.49003058  .00001170  00000-0  91573-4 0  9996,2 52369  53.2166 186.7089 0001356 100.0250 260.0895 15.08839403107045,6917.882,95.438,540.685,538.809,0.0
52369.0,STARLINK-3841,PAYLOAD,2024-03-19 11:36:25,15.0885012,0.0001384,53.2171,182.2495,89.7201,270.395,9.5934e-05,1.24e-05,0.0,0 STARLINK-3841,1 52369U 22045AQ  24079.48362436  .00001240  00000-0  95934-4 0  9997,2 52369  53.2171 182.2495 0001384  89.7201 270.3950 15.08850120107194,6917.849,95.437,540.672,538.757,0.0
52369.0,STARLINK-3841,PAYLOAD,2024-03-19 13:11:48,15.08852084,0.0001485,53.2175,181.9526,83.3179,276.7982,0.00011279,1.508e-05,0.0,0 STARLINK-3841,1 52369U 22045AQ  24079.54986301  .00001508  00000-0  11279-3 0  9993,2 52369  53.2175 181.9526 0001485  83.3179 276.7982 15.08852084107203,6917.843,95.437,540.736,538.681,0.0
52369.0,STARLINK-3841,PAYLOAD,2024-03-20 09:51:49,15.08838696,0.0001717,53.2175,178.0807,115.8081,244.3088,3.227e-05,2.26e-06,0.0,0 STARLINK-3841,1 52369U 22045AQ  24080.41098985  .00000226  00000-0  32270-4 0  9994,2 52369  53.2175 178.0807 0001717 115.8081 244.3088 15.08838696107338,6917.884,95.438,540.937,538.562,0.0
52369.0,STARLINK-3841,PAYLOAD,2024-03-20 13:02:35,15.08838613,0.0001167,53.2165,177.4913,86.4891,273.6235,4.3258e-05,4.01e-06,0.0,0 STARLINK-3841,1 52369U 22045AQ  24080.54347189  .00000401  00000-0  43258-4 0  9994,2 52369  53.2165 177.4913 0001167  86.4891 273.6235 15.08838613107359,6917.885,95.438,540.557,538.942,0.0
52369.0,STARLINK-3841,PAYLOAD,2024-03-21 12:53:23,15.08841336,0.0001436,53.2161,173.0268,70.9511,289.1636,-6.2231e-05,-1.278e-05,0.0,0 STARLINK-3841,1 52369U 22045AQ  24081.53707662 -.00001278  00000-0 -62231-4 0  9997,2 52369  53.2161 173.0268 0001436  70.9511 289.1636 15.08841336107506,6917.876,95.437,540.735,538.748,0.0
52369.0,STARLINK-3841,PAYLOAD,2024-03-22 12:44:09,15.08843141,0.0001523,53.2165,168.5674,73.325,286.7909,0.00022179,3.244e-05,0.0,0 STARLINK-3841,1 52369U 22045AQ  24082.53066911  .00003244  00000-0  22179-3 0  9992,2 52369  53.2165 168.5674 0001523  73.3250 286.7909 15.08843141107652,6917.871,95.437,540.789,538.682,0.0
52369.0,STARLINK-3841,PAYLOAD,2024-03-23 10:59:34,15.08831927,0.0001383,53.2159,164.4002,98.0111,262.1038,4.6111e-05,4.46e-06,0.0,0 STARLINK-3841,1 52369U 22045AQ  24083.45804316  .00000446  00000-0  46111-4 0  9997,2 52369  53.2159 164.4002 0001383  98.0111 262.1038 15.08831927107794,6917.905,95.438,540.727,538.813,0.0
52369.0,STARLINK-3841,PAYLOAD,2024-03-24 12:25:44,15.08847055,0.0001924,53.2176,159.654,69.2835,290.8363,0.00013427,1.85e-05,0.0,0 STARLINK-3841,1 52369U 22045AQ  24084.51787705  .00001850  00000-0  13427-3 0  9990,2 52369  53.2176 159.6540 0001924  69.2835 290.8363 15.08847055107956,6917.859,95.437,541.055,538.393,0.0
52369.0,STARLINK-3841,PAYLOAD,2024-03-24 14:01:07,15.08858865,0.0001566,53.2168,159.3498,92.0238,268.0933,0.00029168,4.359e-05,0.0,0 STARLINK-3841,1 52369U 22045AQ  24084.58410968  .00004359  00000-0  29168-3 0  9997,2 52369  53.2168 159.3498 0001566  92.0238 268.0933 15.08858865107961,6917.823,95.436,540.771,538.604,0.0
52369.0,STARLINK-3841,PAYLOAD,2024-03-24 21:58:02,15.08857753,0.0001346,53.2166,157.8654,121.205,238.9074,0.00036652,5.553e-05,0.0,0 STARLINK-3841,1 52369U 22045AQ  24084.91530858  .00005553  00000-0  36652-3 0  9998,2 52369  53.2166 157.8654 0001346 121.2050 238.9074 15.08857753108013,6917.826,95.436,540.622,538.76,0.0
52369.0,STARLINK-3841,PAYLOAD,2024-03-25 12:16:31,15.08809573,0.0001466,53.2161,155.188,79.5879,280.5278,-0.00088841,-0.00014387,0.0,0 STARLINK-3841,1 52369U 22045AQ  24085.51147556 -.00014387  00000-0 -88841-3 0  9998,2 52369  53.2161 155.1880 0001466  79.5879 280.5278 15.08809573108103,6917.973,95.439,540.853,538.824,0.0
52369.0,STARLINK-3841,PAYLOAD,2024-03-25 21:48:50,15.08808247,0.0001374,53.2156,153.4046,69.8635,290.2504,-0.00075412,-0.00012259,0.0,0 STARLINK-3841,1 52369U 22045AQ  24085.90891420 -.00012259  00000-0 -75412-3 0  9993,2 52369  53.2156 153.4046 0001374  69.8635 290.2504 15.08808247108165,6917.977,95.44,540.793,538.892,0.0
52369.0,STARLINK-3841,PAYLOAD,2024-03-26 04:10:24,15.08797127,0.000136,53.215,152.2146,68.5843,291.5294,0.0022458,0.00035593,0.0,0 STARLINK-3841,1 52369U 22045AQ  24086.17388939  .00035593  00000-0  22458-2 0  9994,2 52369  53.2150 152.2146 0001360  68.5843 291.5294 15.08797127108208,6918.011,95.44,540.817,538.936,0.0
52369.0,STARLINK-3841,PAYLOAD,2024-03-26 10:31:56,15.08829259,0.0001534,53.2148,151.0265,63.8956,296.2194,0.0032778,0.0005225,0.0,0 STARLINK-3841,1 52369U 22045AQ  24086.43885403  .00052250  00000-0  32778-2 0  9996,2 52369  53.2148 151.0265 0001534  63.8956 296.2194 15.08829259108247,6917.913,95.438,540.839,538.717,0.0
52369.0,STARLINK-3841,PAYLOAD,2024-03-26 21:39:39,15.08839858,0.0001575,53.2144,148.9442,65.3659,294.7497,0.0018085,0.00028612,0.0,0 STARLINK-3841,1 52369U 22045AQ  24086.90253770  .00028612  00000-0  18085-2 0  9994,2 52369  53.2144 148.9442 0001575  65.3659 294.7497 15.08839858108310,6917.881,95.438,540.835,538.656,0.0
52369.0,STARLINK-3841,PAYLOAD,2024-03-27 10:22:43,15.08874176,0.0001674,53.2146,146.5654,64.6134,295.5032,0.0020173,0.00031994,0.0,0 STARLINK-3841,1 52369U 22045AQ  24087.43245128  .00031994  00000-0  20173-2 0  9999,2 52369  53.2146 146.5654 0001674  64.6134 295.5032 15.08874176108395,6917.776,95.435,540.799,538.483,0.0
52369.0,STARLINK-3841,PAYLOAD,2024-03-27 21:30:24,15.08884355,0.0001653,53.2139,144.4835,63.0893,297.0268,0.0012962,0.00020426,0.0,0 STARLINK-3841,1 52369U 22045AQ  24087.89612045  .00020426  00000-0  12962-2 0  9990,2 52369  53.2139 144.4835 0001653  63.0893 297.0268 15.08884355108463,6917.745,95.435,540.753,538.466,0.0
52369.0,STARLINK-3841,PAYLOAD,2024-03-28 03:51:57,15.08889148,0.000402,53.2139,143.2931,83.588,276.557,0.0016372,0.00025902,0.0,0 STARLINK-3841,1 52369U 22045AQ  24088.16108406  .00025902  00000-0  16372-2 0  9995,2 52369  53.2139 143.2931 0004020  83.5880 276.5570 15.08889148108509,6917.73,95.434,542.376,536.814,0.0
52369.0,STARLINK-3841,PAYLOAD,2024-03-28 10:13:30,15.08845145,0.0001587,53.2148,142.1051,72.7612,287.3553,0.0013494,0.00021256,0.0,0 STARLINK-3841,1 52369U 22045AQ  24088.42604222  .00021256  00000-0  13494-2 0  9991,2 52369  53.2148 142.1051 0001587  72.7612 287.3553 15.08845145108542,6917.865,95.437,540.828,538.632,0.0
52369.0,STARLINK-3841,PAYLOAD,2024-03-28 13:24:16,15.08846926,0.00016,53.2147,141.5104,70.9425,289.174,0.0014882,0.00023481,0.0,0 STARLINK-3841,1 52369U 22045AQ  24088.55852212  .00023481  00000-0  14882-2 0  9993,2 52369  53.2147 141.5104 0001600  70.9425 289.1740 15.08846926108569,6917.859,95.437,540.831,538.617,0.0
52369.0,STARLINK-3841,PAYLOAD,2024-03-29 10:04:17,15.08844185,0.0001713,53.2156,137.6428,78.2212,281.8972,0.00027584,4.105e-05,0.0,0 STARLINK-3841,1 52369U 22045AQ  24089.41964205  .00004105  00000-0  27584-3 0  9991,2 52369  53.2156 137.6428 0001713  78.2212 281.8972 15.08844185108699,6917.868,95.437,540.918,538.548,0.0
52369.0,STARLINK-3841,PAYLOAD,2024-03-30 09:55:04,15.08837909,0.0001628,53.2159,133.1829,78.3493,281.7681,0.00012925,1.769e-05,0.0,0 STARLINK-3841,1 52369U 22045AQ  24090.41324616  .00001769  00000-0  12925-3 0  9995,2 52369  53.2159 133.1829 0001628  78.3493 281.7681 15.08837909108844,6917.887,95.438,540.878,538.626,0.0
52369.0,STARLINK-3841,PAYLOAD,2024-03-30 19:27:22,15.08844814,0.0001559,53.2154,131.3972,74.2595,285.8569,0.00015369,2.159e-05,0.0,0 STARLINK-3841,1 52369U 22045AQ  24090.81068241  .00002159  00000-0  15369-3 0  9997,2 52369  53.2154 131.3972 0001559  74.2595 285.8569 15.08844814108909,6917.866,95.437,540.809,538.652,0.0
52369.0,STARLINK-3841,PAYLOAD,2024-03-31 09:45:50,15.08870512,0.0001833,53.2153,128.7229,91.3816,268.7386,0.00053718,8.279e-05,0.0,0 STARLINK-3841,1 52369U 22045AQ  24091.40682966  .00008279  00000-0  53718-3 0  9998,2 52369  53.2153 128.7229 0001833  91.3816 268.7386 15.08870512108994,6917.787,95.436,540.92,538.384,0.0
52369.0,STARLINK-3841,PAYLOAD,2024-03-31 19:18:09,15.08844356,0.0001485,53.2153,126.9377,82.9267,277.1894,0.00012141,1.645e-05,0.0,0 STARLINK-3841,1 52369U 22045AQ  24091.80428085  .00001645  00000-0  12141-3 0  9997,2 52369  53.2153 126.9377 0001485  82.9267 277.1894 15.08844356109050,6917.867,95.437,540.759,538.705,0.0
52369.0,STARLINK-3841,PAYLOAD,2024-04-01 11:12:02,15.08832512,0.0001531,53.2156,123.9654,96.2158,263.9009,2.0665e-05,4.1e-07,0.0,0 STARLINK-3841,1 52369U 22045AQ  24092.46669070  .00000041  00000-0  20665-4 0  9991,2 52369  53.2156 123.9654 0001531  96.2158 263.9009 15.08832512109150,6917.903,95.438,540.827,538.709,0.0
52369.0,STARLINK-3841,PAYLOAD,2024-04-02 09:27:25,15.08850486,0.0001491,53.2154,119.8022,94.1382,265.978,0.00020837,3.031e-05,0.0,0 STARLINK-3841,1 52369U 22045AQ  24093.39404407  .00003031  00000-0  20837-3 0  9997,2 52369  53.2154 119.8022 0001491  94.1382 265.9780 15.08850486109295,6917.848,95.437,540.745,538.682,0.0
52369.0,STARLINK-3841,PAYLOAD,2024-04-02 18:59:44,15.08851923,0.0001447,53.2149,118.0171,94.2322,265.8835,0.00027733,4.13e-05,0.0,0 STARLINK-3841,1 52369U 22045AQ  24093.79148300  .00004130  00000-0  27733-3 0  9991,2 52369  53.2149 118.0171 0001447  94.2322 265.8835 15.08851923109355,6917.844,95.437,540.71,538.708,0.0
52369.0,STARLINK-3841,PAYLOAD,2024-04-03 10:53:35,15.08841702,0.0001423,53.2152,115.0432,97.5632,262.5522,0.00014728,2.057e-05,0.0,0 STARLINK-3841,1 52369U 22045AQ  24094.45388867  .00002057  00000-0  14728-3 0  9995,2 52369  53.2152 115.0432 0001423  97.5632 262.5522 15.08841702109452,6917.875,95.437,540.725,538.756,0.0
